NORAD_CAT_ID,OBJECT_NAME,OBJECT_TYPE,EPOCH,MEAN_MOTION,ECCENTRICITY,INCLINATION,RA_OF_ASC_NODE,ARG_OF_PERICENTER,MEAN_ANOMALY,BSTAR,MEAN_MOTION_DOT,MEAN_MOTION_DDOT,TLE_LINE0,TLE_LINE1,TLE_LINE2,SEMIMAJOR_AXIS,PERIOD,APOGEE,PERIGEE,DECAYED
49180.0,STARLINK-3050,PAYLOAD,2024-05-21 04:16:27,14.98322474,0.0003281,69.9982,132.2735,268.017,92.0613,-2.0899e-05,-3.42e-06,0.0,0 STARLINK-3050,1 49180U 21082BC  24142.17809469 -.00000342  00000-0 -20899-4 0  9995,2 49180  69.9982 132.2735 0003281 268.0170  92.0613 14.98322474149153,6950.216,96.107,574.362,569.801,0.0
49180.0,STARLINK-3050,PAYLOAD,2024-05-21 09:04:51,14.98322482,0.0003318,69.9982,131.7688,267.1247,92.9532,-5.0134e-05,-6.91e-06,0.0,0 STARLINK-3050,1 49180U 21082BC  24142.37837594 -.00000691  00000-0 -50134-4 0  9999,2 49180  69.9982 131.7688 0003318 267.1247  92.9532 14.98322482149181,6950.216,96.107,574.387,569.775,0.0
49180.0,STARLINK-3050,PAYLOAD,2024-05-22 04:18:28,14.98331268,0.0003217,69.9986,129.75,267.4921,92.587,-7.2929e-05,-9.63e-06,0.0,0 STARLINK-3050,1 49180U 21082BC  24143.17949310 -.00000963  00000-0 -72929-4 0  9996,2 49180  69.9986 129.7500 0003217 267.4921  92.5870 14.98331268149302,6950.189,96.107,574.29,569.818,0.0
49180.0,STARLINK-3050,PAYLOAD,2024-05-22 09:06:52,14.98336824,0.0003257,69.9983,129.2442,266.7741,93.3046,-6.5136e-05,-8.7e-06,0.0,0 STARLINK-3050,1 49180U 21082BC  24143.37976881 -.00000870  00000-0 -65136-4 0  9990,2 49180  69.9983 129.2442 0003257 266.7741  93.3046 14.98336824149335,6950.172,96.107,574.3,569.773,0.0
49180.0,STARLINK-3050,PAYLOAD,2024-05-23 04:20:28,14.98327493,0.0003196,69.9984,127.224,264.6986,95.3808,0.00020508,2.355e-05,0.0,0 STARLINK-3050,1 49180U 21082BC  24144.18089033  .00002355  00000-0  20508-3 0  9995,2 49180  69.9984 127.2240 0003196 264.6986  95.3808 14.98327493149453,6950.201,96.107,574.287,569.844,0.0
49180.0,STARLINK-3050,PAYLOAD,2024-05-23 09:08:52,14.98331556,0.0003147,69.9986,126.7191,264.5017,95.5783,0.00025674,2.972e-05,0.0,0 STARLINK-3050,1 49180U 21082BC  24144.38116814  .00002972  00000-0  25674-3 0  9999,2 49180  69.9986 126.7191 0003147 264.5017  95.5783 14.98331556149486,6950.188,96.107,574.24,569.866,0.0
49180.0,STARLINK-3050,PAYLOAD,2024-05-24 04:22:29,14.98334726,0.0003013,69.999,124.6992,264.537,95.5445,0.00015808,1.794e-05,0.0,0 STARLINK-3050,1 49180U 21082BC  24145.18228819  .00001794  00000-0  15808-3 0  9996,2 49180  69.9990 124.6992 0003013 264.5370  95.5445 14.98334726149602,6950.178,96.107,574.137,569.949,0.0
49180.0,STARLINK-3050,PAYLOAD,2024-05-24 07:34:45,14.9833721,0.0002981,69.999,124.3625,264.4129,95.669,0.00018686,2.138e-05,0.0,0 STARLINK-3050,1 49180U 21082BC  24145.31580592  .00002138  00000-0  18686-3 0  9990,2 49180  69.9990 124.3625 0002981 264.4129  95.6690 14.98337210149622,6950.171,96.107,574.107,569.964,0.0
49180.0,STARLINK-3050,PAYLOAD,2024-05-24 22:00:01,14.98300154,0.0002755,69.9993,122.848,263.8453,96.2392,-0.00028024,-3.432e-05,0.0,0 STARLINK-3050,1 49180U 21082BC  24145.91668588 -.00003432  00000-0 -28024-3 0  9995,2 49180  69.9993 122.8480 0002755 263.8453  96.2392 14.98300154149712,6950.285,96.109,574.065,570.235,0.0
49180.0,STARLINK-3050,PAYLOAD,2024-05-25 04:24:33,14.98309758,0.0002795,70.004,122.1821,199.6537,160.4515,-7.0322e-05,-9.31e-06,0.0,0 STARLINK-3050,1 49180U 21082BC  24146.18371845 -.00000931  00000-0 -70322-4 0  9992,2 49180  70.0040 122.1821 0002795 199.6537 160.4515 14.98309758149757,6950.255,96.108,574.063,570.178,0.0
49180.0,STARLINK-3050,PAYLOAD,2024-05-25 07:36:48,14.98323351,0.0002745,69.9995,121.8383,257.2034,102.8818,-7.4138e-06,-1.81e-06,0.0,0 STARLINK-3050,1 49180U 21082BC  24146.31722923 -.00000181  00000-0 -74138-5 0  9991,2 49180  69.9995 121.8383 0002745 257.2034 102.8818 14.98323351149773,6950.213,96.107,573.986,570.171,0.0
49180.0,STARLINK-3050,PAYLOAD,2024-05-26 04:26:32,14.9833449,0.0003144,69.9986,119.6492,267.8045,92.2754,0.00012012,1.341e-05,0.0,0 STARLINK-3050,1 49180U 21082BC  24147.18510069  .00001341  00000-0  12012-3 0  9991,2 49180  69.9986 119.6492 0003144 267.8045  92.2754 14.98334490149904,6950.179,96.107,574.229,569.859,0.0
49180.0,STARLINK-3050,PAYLOAD,2024-05-26 07:38:48,14.98335097,0.000295,69.9988,119.3123,266.9332,93.1489,0.00012972,1.455e-05,0.0,0 STARLINK-3050,1 49180U 21082BC  24147.31862037  .00001455  00000-0  12972-3 0  9992,2 49180  69.9988 119.3123 0002950 266.9332  93.1489 14.98335097149928,6950.177,96.107,574.092,569.992,0.0
49180.0,STARLINK-3050,PAYLOAD,2024-05-26 22:04:01,14.98341345,0.0003091,69.9985,117.7974,268.0401,92.0404,0.00028778,3.343e-05,0.0,0 STARLINK-3050,1 49180U 21082BC  24147.91945726  .00003343  00000-0  28778-3 0  9994,2 49180  69.9985 117.7974 0003091 268.0401  92.0404 14.98341345150018,6950.158,96.106,574.171,569.875,0.0
49180.0,STARLINK-3050,PAYLOAD,2024-05-27 04:28:33,14.98337665,0.0002991,69.9994,117.1238,267.0468,93.0348,0.0003589,4.193e-05,0.0,0 STARLINK-3050,1 49180U 21082BC  24148.18649736  .00004193  00000-0  35890-3 0  9993,2 49180  69.9994 117.1238 0002991 267.0468  93.0348 14.98337665150057,6950.169,96.107,574.113,569.955,0.0
49180.0,STARLINK-3050,PAYLOAD,2024-05-27 07:40:49,14.98344426,0.0002804,69.9993,116.7878,262.3542,97.7299,0.00030867,3.593e-05,0.0,0 STARLINK-3050,1 49180U 21082BC  24148.32001228  .00003593  00000-0  30867-3 0  9999,2 49180  69.9993 116.7878 0002804 262.3542  97.7299 14.98344426150076,6950.148,96.106,573.962,570.064,0.0
49180.0,STARLINK-3050,PAYLOAD,2024-05-27 22:06:01,14.98339073,0.0002439,70.0002,115.2724,251.7755,108.3139,0.00012282,1.373e-05,0.0,0 STARLINK-3050,1 49180U 21082BC  24148.92085328  .00001373  00000-0  12282-3 0  9993,2 49180  70.0002 115.2724 0002439 251.7755 108.3139 14.98339073150160,6950.165,96.106,573.725,570.335,0.0
49180.0,STARLINK-3050,PAYLOAD,2024-05-28 04:30:34,14.98332963,0.0002988,69.9994,114.5992,271.6995,88.3822,7.3521e-05,7.84e-06,0.0,0 STARLINK-3050,1 49180U 21082BC  24149.18789652  .00000784  00000-0  73521-4 0  9992,2 49180  69.9994 114.5992 0002988 271.6995  88.3822 14.98332963150204,6950.184,96.107,574.125,569.972,0.0
49180.0,STARLINK-3050,PAYLOAD,2024-05-28 07:42:50,14.98336174,0.0002891,69.999,114.2627,266.7532,93.3297,2.9386e-08,-9.3e-07,0.0,0 STARLINK-3050,1 49180U 21082BC  24149.32141491 -.00000093  00000-0  29386-7 0  9998,2 49180  69.9990 114.2627 0002891 266.7532  93.3297 14.98336174150229,6950.174,96.107,574.048,570.03,0.0
49180.0,STARLINK-3050,PAYLOAD,2024-05-28 22:08:02,14.98341134,0.0002829,69.9992,112.7471,269.2901,90.7934,-4.6289e-05,-6.45e-06,0.0,0 STARLINK-3050,1 49180U 21082BC  24149.92224879 -.00000645  00000-0 -46289-4 0  9998,2 49180  69.9992 112.7471 0002829 269.2901  90.7934 14.98341134150311,6950.158,96.106,573.99,570.057,0.0
49180.0,STARLINK-3050,PAYLOAD,2024-05-29 04:32:34,14.98325484,0.0002752,69.9993,112.074,270.5863,89.4981,0.00021249,2.443e-05,0.0,0 STARLINK-3050,1 49180U 21082BC  24150.18929069  .00002443  00000-0  21249-3 0  9995,2 49180  69.9993 112.0740 0002752 270.5863  89.4981 14.98325484150352,6950.207,96.107,573.985,570.159,0.0
49180.0,STARLINK-3050,PAYLOAD,2024-05-29 07:44:50,14.98342178,0.0002832,69.9993,111.7374,270.0003,90.0832,-6.1016e-05,-8.21e-06,0.0,0 STARLINK-3050,1 49180U 21082BC  24150.32280525 -.00000821  00000-0 -61016-4 0  9995,2 49180  69.9993 111.7374 0002832 270.0003  90.0832 14.98342178150375,6950.155,96.106,573.989,570.052,0.0
49180.0,STARLINK-3050,PAYLOAD,2024-05-29 22:10:03,14.98330423,0.0002817,69.9994,110.2226,272.2045,87.8791,4.37e-05,4.28e-06,0.0,0 STARLINK-3050,1 49180U 21082BC  24150.92364803  .00000428  00000-0  43700-4 0  9994,2 49180  69.9994 110.2226 0002817 272.2045  87.8791 14.98330423150467,6950.192,96.107,574.014,570.099,0.0
49180.0,STARLINK-3050,PAYLOAD,2024-05-30 04:34:35,14.98331527,0.00028,69.9994,109.5493,271.4505,88.6333,5.296e-05,5.39e-06,0.0,0 STARLINK-3050,1 49180U 21082BC  24151.19068695  .00000539  00000-0  52960-4 0  9995,2 49180  69.9994 109.5493 0002800 271.4505  88.6333 14.98331527150500,6950.188,96.107,573.999,570.107,0.0
49180.0,STARLINK-3050,PAYLOAD,2024-05-30 07:46:50,14.98340832,0.0002775,70.0,109.2138,260.1594,99.9252,0.00015384,1.744e-05,0.0,0 STARLINK-3050,1 49180U 21082BC  24151.32419841  .00001744  00000-0  15384-3 0  9990,2 49180  70.0000 109.2138 0002775 260.1594  99.9252 14.98340832150524,6950.159,96.106,573.953,570.096,0.0
49180.0,STARLINK-3050,PAYLOAD,2024-05-30 22:12:02,14.98348446,0.0002731,69.9998,107.6987,265.5804,94.5043,0.00017718,2.023e-05,0.0,0 STARLINK-3050,1 49180U 21082BC  24151.92502740  .00002023  00000-0  17718-3 0  9991,2 49180  69.9998 107.6987 0002731 265.5804  94.5043 14.98348446150614,6950.136,96.106,573.899,570.103,0.0
49180.0,STARLINK-3050,PAYLOAD,2024-05-31 04:36:34,14.98349099,0.0002667,69.9999,107.0257,261.9622,98.1235,0.00017233,1.965e-05,0.0,0 STARLINK-3050,1 49180U 21082BC  24152.19206397  .00001965  00000-0  17233-3 0  9996,2 49180  69.9999 107.0257 0002667 261.9622  98.1235 14.98349099150657,6950.134,96.106,573.852,570.145,0.0
49180.0,STARLINK-3050,PAYLOAD,2024-05-31 07:48:50,14.98350707,0.0002782,69.9998,106.689,261.8758,98.2086,0.00019196,2.199e-05,0.0,0 STARLINK-3050,1 49180U 21082BC  24152.32558125  .00002199  00000-0  19196-3 0  9990,2 49180  69.9998 106.6890 0002782 261.8758  98.2086 14.98350707150676,6950.129,96.106,573.927,570.06,0.0
49180.0,STARLINK-3050,PAYLOAD,2024-05-31 20:37:55,14.98331734,0.000244,70.0026,105.3418,252.5806,107.5087,2.8886e-05,2.52e-06,0.0,0 STARLINK-3050,1 49180U 21082BC  24152.85967445  .00000252  00000-0  28886-4 0  9992,2 49180  70.0026 105.3418 0002440 252.5806 107.5087 14.98331734150758,6950.188,96.107,573.748,570.357,0.0
49180.0,STARLINK-3050,PAYLOAD,2024-05-31 22:14:04,14.98329731,0.0002534,69.9993,105.1718,258.7368,101.3506,-5.7247e-06,-1.61e-06,0.0,0 STARLINK-3050,1 49180U 21082BC  24152.92643634 -.00000161  00000-0 -57247-5 0  9996,2 49180  69.9993 105.1718 0002534 258.7368 101.3506 14.98329731150767,6950.194,96.107,573.82,570.298,0.0
